[
    {
        "Altitude(m)": 556565.8616626777,
        "Argument of Periapsis(deg)": 0.026491964442854003,
        "Eccentricity": 0.0,
        "Inclination(deg)": 53.0,
        "Latitude(deg)": 38.175818662175956,
        "Longitude(deg)": 95.7137047303961,
        "Mean Anomaly(deg)": 129.45737147031036,
        "RAAN(deg)": 54.96057347411207,
        "Satellite Name": "Starlink Shell 1 247",
        "Satellite Number": 247,
        "Semi-Major Axis(m)": 6931778.249405717,
        "Time(s)": 760
    },
    {
        "Altitude(m)": 556482.4922511147,
        "Argument of Periapsis(deg)": 0.02684054292236524,
        "Eccentricity": 0.0,
        "Inclination(deg)": 53.0,
        "Latitude(deg)": 37.768520993330974,
        "Longitude(deg)": 96.27702343553112,
        "Mean Anomaly(deg)": 130.0842026738671,
        "RAAN(deg)": 54.9600547040346,
        "Satellite Name": "Starlink Shell 1 247",
        "Satellite Number": 247,
        "Semi-Major Axis(m)": 6931778.249405717,
        "Time(s)": 770
    },
    {
        "Altitude(m)": 556399.193166042,
        "Argument of Periapsis(deg)": 0.027189121401876473,
        "Eccentricity": 0.0,
        "Inclination(deg)": 53.0,
        "Latitude(deg)": 37.358126701893504,
        "Longitude(deg)": 96.83372779792899,
        "Mean Anomaly(deg)": 130.71103387742377,
        "RAAN(deg)": 54.95953593395713,
        "Satellite Name": "Starlink Shell 1 247",
        "Satellite Number": 247,
        "Semi-Major Axis(m)": 6931778.249405717,
        "Time(s)": 780
    },
    {
        "Altitude(m)": 556316.0196761142,
        "Argument of Periapsis(deg)": 0.02753769988138771,
        "Eccentricity": 0.0,
        "Inclination(deg)": 53.0,
        "Latitude(deg)": 36.94471322664792,
        "Longitude(deg)": 97.38393859213798,
        "Mean Anomaly(deg)": 131.3378650809805,
        "RAAN(deg)": 54.95901716387965,
        "Satellite Name": "Starlink Shell 1 247",
        "Satellite Number": 247,
        "Semi-Major Axis(m)": 6931778.249405717,
        "Time(s)": 790
    },
    {
        "Altitude(m)": 556233.0271956538,
        "Argument of Periapsis(deg)": 0.02788627836089895,
        "Eccentricity": 0.0,
        "Inclination(deg)": 53.0,
        "Latitude(deg)": 36.52835630278966,
        "Longitude(deg)": 97.92777596056932,
        "Mean Anomaly(deg)": 131.96469628453718,
        "RAAN(deg)": 54.95849839380218,
        "Satellite Name": "Starlink Shell 1 247",
        "Satellite Number": 247,
        "Semi-Major Axis(m)": 6931778.249405717,
        "Time(s)": 800
    },
    {
        "Altitude(m)": 556150.2712562282,
        "Argument of Periapsis(deg)": 0.02823485684041019,
        "Eccentricity": 0.0,
        "Inclination(deg)": 53.0,
        "Latitude(deg)": 36.109129989237495,
        "Longitude(deg)": 98.46535977790076,
        "Mean Anomaly(deg)": 132.59152748809393,
        "RAAN(deg)": 54.95797962372471,
        "Satellite Name": "Starlink Shell 1 247",
        "Satellite Number": 247,
        "Semi-Major Axis(m)": 6931778.249405717,
        "Time(s)": 810
    },
    {
        "Altitude(m)": 556067.8074781531,
        "Argument of Periapsis(deg)": 0.028583435319921423,
        "Eccentricity": 0.0,
        "Inclination(deg)": 53.0,
        "Latitude(deg)": 35.687106697151634,
        "Longitude(deg)": 98.99681002711735,
        "Mean Anomaly(deg)": 133.21835869165065,
        "RAAN(deg)": 54.95746085364723,
        "Satellite Name": "Starlink Shell 1 247",
        "Satellite Number": 247,
        "Semi-Major Axis(m)": 6931778.249405717,
        "Time(s)": 820
    },
    {
        "Altitude(m)": 555985.6915418669,
        "Argument of Periapsis(deg)": 0.028932013799432665,
        "Eccentricity": 0.0,
        "Inclination(deg)": 53.0,
        "Latitude(deg)": 35.26235721948327,
        "Longitude(deg)": 99.52224567371535,
        "Mean Anomaly(deg)": 133.84518989520737,
        "RAAN(deg)": 54.956942083569764,
        "Satellite Name": "Starlink Shell 1 247",
        "Satellite Number": 247,
        "Semi-Major Axis(m)": 6931778.249405717,
        "Time(s)": 830
    },
    {
        "Altitude(m)": 555903.9791592766,
        "Argument of Periapsis(deg)": 0.029280592278943897,
        "Eccentricity": 0.0,
        "Inclination(deg)": 53.0,
        "Latitude(deg)": 34.83495076139476,
        "Longitude(deg)": 100.04178506322953,
        "Mean Anomaly(deg)": 134.47202109876406,
        "RAAN(deg)": 54.95642331349229,
        "Satellite Name": "Starlink Shell 1 247",
        "Satellite Number": 247,
        "Semi-Major Axis(m)": 6931778.249405717,
        "Time(s)": 840
    },
    {
        "Altitude(m)": 555822.7260450013,
        "Argument of Periapsis(deg)": 0.029629170758455132,
        "Eccentricity": 0.0,
        "Inclination(deg)": 53.0,
        "Latitude(deg)": 34.40495497140078,
        "Longitude(deg)": 100.55554632863438,
        "Mean Anomaly(deg)": 135.09885230232078,
        "RAAN(deg)": 54.95590454341481,
        "Satellite Name": "Starlink Shell 1 247",
        "Satellite Number": 247,
        "Semi-Major Axis(m)": 6931778.249405717,
        "Time(s)": 850
    },
    {
        "Altitude(m)": 555741.987887578,
        "Argument of Periapsis(deg)": 0.02997774923796637,
        "Eccentricity": 0.0,
        "Inclination(deg)": 53.0,
        "Latitude(deg)": 33.97243597309533,
        "Longitude(deg)": 101.06364612608584,
        "Mean Anomaly(deg)": 135.7256835058775,
        "RAAN(deg)": 54.95538577333734,
        "Satellite Name": "Starlink Shell 1 247",
        "Satellite Number": 247,
        "Semi-Major Axis(m)": 6931778.249405717,
        "Time(s)": 860
    },
    {
        "Altitude(m)": 555661.8203206542,
        "Argument of Periapsis(deg)": 0.030326327717477602,
        "Eccentricity": 0.0,
        "Inclination(deg)": 53.0,
        "Latitude(deg)": 33.5374583973363,
        "Longitude(deg)": 101.56620090089363,
        "Mean Anomaly(deg)": 136.3525147094342,
        "RAAN(deg)": 54.95486700325987,
        "Satellite Name": "Starlink Shell 1 247",
        "Satellite Number": 247,
        "Semi-Major Axis(m)": 6931778.249405717,
        "Time(s)": 870
    },
    {
        "Altitude(m)": 555582.2788941325,
        "Argument of Periapsis(deg)": 0.030674906196988847,
        "Eccentricity": 0.0,
        "Inclination(deg)": 53.0,
        "Latitude(deg)": 33.10008541477462,
        "Longitude(deg)": 102.06332564028038,
        "Mean Anomaly(deg)": 136.97934591299094,
        "RAAN(deg)": 54.954348233182394,
        "Satellite Name": "Starlink Shell 1 247",
        "Satellite Number": 247,
        "Semi-Major Axis(m)": 6931778.249405717,
        "Time(s)": 880
    },
    {
        "Altitude(m)": 555503.419045346,
        "Argument of Periapsis(deg)": 0.031023484676500086,
        "Eccentricity": 0.0,
        "Inclination(deg)": 53.0,
        "Latitude(deg)": 32.660378768621506,
        "Longitude(deg)": 102.55513431485483,
        "Mean Anomaly(deg)": 137.60617711654766,
        "RAAN(deg)": 54.953829463104924,
        "Satellite Name": "Starlink Shell 1 247",
        "Satellite Number": 247,
        "Semi-Major Axis(m)": 6931778.249405717,
        "Time(s)": 890
    },
    {
        "Altitude(m)": 555425.2960701913,
        "Argument of Periapsis(deg)": 0.03137206315601132,
        "Eccentricity": 0.0,
        "Inclination(deg)": 53.0,
        "Latitude(deg)": 32.2183988075582,
        "Longitude(deg)": 103.0417403273401,
        "Mean Anomaly(deg)": 138.23300832010437,
        "RAAN(deg)": 54.953310693027454,
        "Satellite Name": "Starlink Shell 1 247",
        "Satellite Number": 247,
        "Semi-Major Axis(m)": 6931778.249405717,
        "Time(s)": 900
    },
    {
        "Altitude(m)": 555347.9650943354,
        "Argument of Periapsis(deg)": 0.03172064163552255,
        "Eccentricity": 0.0,
        "Inclination(deg)": 53.0,
        "Latitude(deg)": 31.774204518701723,
        "Longitude(deg)": 103.52325545521673,
        "Mean Anomaly(deg)": 138.8598395236611,
        "RAAN(deg)": 54.95279192294998,
        "Satellite Name": "Starlink Shell 1 247",
        "Satellite Number": 247,
        "Semi-Major Axis(m)": 6931778.249405717,
        "Time(s)": 910
    },
    {
        "Altitude(m)": 555271.4810444342,
        "Argument of Periapsis(deg)": 0.0320692201150338,
        "Eccentricity": 0.0,
        "Inclination(deg)": 53.0,
        "Latitude(deg)": 31.32785356054727,
        "Longitude(deg)": 103.9997903125855,
        "Mean Anomaly(deg)": 139.48667072721778,
        "RAAN(deg)": 54.95227315287251,
        "Satellite Name": "Starlink Shell 1 247",
        "Satellite Number": 247,
        "Semi-Major Axis(m)": 6931778.249405717,
        "Time(s)": 920
    },
    {
        "Altitude(m)": 555195.8986194152,
        "Argument of Periapsis(deg)": 0.032417798594545036,
        "Eccentricity": 0.0,
        "Inclination(deg)": 53.0,
        "Latitude(deg)": 30.879402295816426,
        "Longitude(deg)": 104.47145481795025,
        "Mean Anomaly(deg)": 140.1135019307745,
        "RAAN(deg)": 54.95175438279502,
        "Satellite Name": "Starlink Shell 1 247",
        "Satellite Number": 247,
        "Semi-Major Axis(m)": 6931778.249405717,
        "Time(s)": 930
    },
    {
        "Altitude(m)": 555121.2722618101,
        "Argument of Periapsis(deg)": 0.03276637707405627,
        "Eccentricity": 0.0,
        "Inclination(deg)": 53.0,
        "Latitude(deg)": 30.42890582414854,
        "Longitude(deg)": 104.93835715464017,
        "Mean Anomaly(deg)": 140.74033313433122,
        "RAAN(deg)": 54.95123561271756,
        "Satellite Name": "Starlink Shell 1 247",
        "Satellite Number": 247,
        "Semi-Major Axis(m)": 6931778.249405717,
        "Time(s)": 940
    }
]